STARLINK-34476
1 64364U 25126W   26090.65852062 -.00143671  00000+0 -12447-1 0  9992
2 64364  70.0027 339.0239 0002139 206.2172 153.8879 14.97815761 43978
